{"type": "FeatureCollection", "features": [{"type": "Feature", "geometry": {"type": "Polygon", "coordinates": [[[-96.90552142927189, 35.311802245192624], [-96.90638375151596, 35.31212274720682], [-96.90722373577155, 35.312673509263256], [-96.90793374499438, 35.31323079532738], [-96.90853149219953, 35.3139357364235], [-96.908929642359, 35.31471108754226], [-96.90941324849788, 35.31491749155501], [-96.91057693978644, 35.31480220547608], [-96.91125161095411, 35.3147399274312], [-96.9116565020486, 35.3146202473895], [-96.91235418322734, 35.31462759135587], [-96.91248263902706, 35.311500051790155], [-96.91277586557008, 35.30435937449837], [-96.90403758133587, 35.304321801928864], [-96.90403845933464, 35.30430258592538], [-96.91277667256885, 35.30434015749489], [-96.9127803775631, 35.3042495544785], [-96.90404256232891, 35.30421198690893], [-96.89530473909448, 35.304173125339105], [-96.89502967950807, 35.31067157651551], [-96.89507785353358, 35.31084853454474], [-96.89522597061365, 35.31141588463879], [-96.89547718370326, 35.311757509687375], [-96.89586962983095, 35.31212652273369], [-96.89621297293097, 35.31229177274608], [-96.8968058580868, 35.312350753726946], [-96.89744244224457, 35.312285941683506], [-96.89823315042914, 35.31205221060213], [-96.8991026036073, 35.311463024453225], [-96.89954387471808, 35.311437214426505], [-96.90041953992728, 35.311243784348115], [-96.90122032414216, 35.31138232033283], [-96.90187352534541, 35.31187151238762], [-96.9021314344408, 35.31226771744558], [-96.90230426547538, 35.31213938941395], [-96.90320483868038, 35.311803424308806], [-96.90458091702277, 35.31168252321832], [-96.90552142927189, 35.311802245192624]]]}, "properties": {"LANDAREACODE": "821", "TRACTID": "821 ST 1031", "TRACTREFNUM": "5806900", "Label_Name": "Citizen Potawatomi Nation- Absentee Shawnee", "LAR_Name": "Citizen Potawatomi Nation- Absentee Shawnee", "TAAMS_Name": "Citizen Potawatomi", "REGION": "Southern Plains", "AGENCY": "Shawnee", "OWNERSHIP": "T", "TRBE_INTEREST_PERCENT": 100, "Mineral_Resources": "Surface", "EST_ACRES": 364.4}}, {"type": "Feature", "geometry": {"type": "Polygon", "coordinates": [[[-96.89513428405672, 35.30425131236167], [-96.88640909282357, 35.30418994578715], [-96.88498490945899, 35.30417992585658], [-96.88503164280101, 35.308613619647524], [-96.88631547721069, 35.309711135779686], [-96.8862262232389, 35.31039627390673], [-96.88190215413638, 35.31042436612814], [-96.88173425963522, 35.31769748643777], [-96.88335065310348, 35.318439787489645], [-96.88742771113763, 35.318340713267816], [-96.88802790112585, 35.31612487884143], [-96.88881916730175, 35.31577342673893], [-96.88950595850142, 35.31609852476273], [-96.8906318238002, 35.316248638733235], [-96.89141901998673, 35.31605364465893], [-96.89214830115844, 35.315857634587395], [-96.89275459629467, 35.31560737051224], [-96.89357478050047, 35.31555844346247], [-96.89447166870718, 35.31525796036383], [-96.89466871175355, 35.315204746344456], [-96.89513428405672, 35.30425131236167]]]}, "properties": {"LANDAREACODE": "821", "TRACTID": "821 ST 1020", "TRACTREFNUM": "57300858", "Label_Name": "Citizen Potawatomi Nation- Absentee Shawnee", "LAR_Name": "Citizen Potawatomi Nation- Absentee Shawnee", "TAAMS_Name": "Citizen Potawatomi", "REGION": "Southern Plains", "AGENCY": "Shawnee", "OWNERSHIP": "T", "TRBE_INTEREST_PERCENT": 100, "Mineral_Resources": "Surface", "EST_ACRES": 361.9}}, {"type": "Feature", "geometry": {"type": "Polygon", "coordinates": [[[-94.67106359500492, 36.83678720314826], [-94.67106692685867, 36.83496860182365], [-94.66653994665799, 36.83492850605312], [-94.66653211694971, 36.83855959670143], [-94.67106025915125, 36.83860580347295], [-94.6710535934438, 36.84224267212216], [-94.6710506217417, 36.84593137378033], [-94.66652092654019, 36.84589116601002], [-94.66651709583887, 36.84959164567038], [-94.66651329413754, 36.85329212333064], [-94.67104417933744, 36.85330802709643], [-94.6710474000395, 36.8496196874384], [-94.67557770424011, 36.84964758920639], [-94.67558037294306, 36.845971387550534], [-94.67558287364609, 36.842294935894586], [-94.67558837535263, 36.83865187224444], [-94.67559114320593, 36.83683020091926], [-94.67106359500492, 36.83678720314826]]]}, "properties": {"LANDAREACODE": "921", "TRACTID": "921 ST 1008", "TRACTREFNUM": "23303388", "Label_Name": "Eastern Shawnee", "LAR_Name": "Eastern Shawnee", "TAAMS_Name": "Eastern Shawnee", "REGION": "Eastern Oklahoma", "AGENCY": "Miami", "OWNERSHIP": "T", "TRBE_INTEREST_PERCENT": 100, "Mineral_Resources": "Surface", "EST_ACRES": 263.8}}, {"type": "Feature", "geometry": {"type": "MultiPolygon", "coordinates": [[[[-96.92160559000818, 35.29339083709464], [-96.91720880388532, 35.29338647331379], [-96.91719558515136, 35.2970079809623], [-96.91280149202916, 35.297004477181446], [-96.91279094229607, 35.30062701382998], [-96.91278038956308, 35.30424954847852], [-96.91716712268352, 35.30425374625975], [-96.9171773404163, 35.300629516611004], [-96.92156376853642, 35.300631881391936], [-96.92567787058698, 35.30063394518646], [-96.92567787058698, 35.30063394618646], [-96.92571691059693, 35.300633965184545], [-96.9257927916163, 35.300634003180754], [-96.9257927916163, 35.30063400218076], [-96.92595016865647, 35.300634078172884], [-96.9259587849284, 35.30425633582027], [-96.93009823798508, 35.30425453661276], [-96.93013917472605, 35.30063602896363], [-96.93015965959658, 35.29882676163905], [-96.92596697252607, 35.298824324848354], [-96.92596698252595, 35.29882325984817], [-96.92579636848242, 35.298823176856715], [-96.92581316335203, 35.29701444853236], [-96.92158968027356, 35.29701137274309], [-96.92595193938752, 35.29701454852546], [-96.92595454135403, 35.29655577344325], [-96.92159169623991, 35.296552597660906], [-96.92097848508334, 35.29655213469152], [-96.92160136507611, 35.29431807326076], [-96.92160559000818, 35.29339083709464]]], [[[-96.92160559000818, 35.29339083709464], [-96.92160154707562, 35.29431092025948], [-96.922106198136, 35.29339132706972], [-96.92160559000818, 35.29339083709464]]]]}, "properties": {"LANDAREACODE": "821", "TRACTID": "821 T 1003", "TRACTREFNUM": "773300", "Label_Name": "Citizen Potawatomi Nation- Absentee Shawnee", "LAR_Name": "Citizen Potawatomi Nation- Absentee Shawnee", "TAAMS_Name": "Citizen Potawatomi", "REGION": "Southern Plains", "AGENCY": "Shawnee", "OWNERSHIP": "T", "TRBE_INTEREST_PERCENT": 100, "Mineral_Resources": "Both", "EST_ACRES": 257.5}}, {"type": "Feature", "geometry": {"type": "Polygon", "coordinates": [[[-97.07182485052635, 35.41621787246467], [-97.07403959309296, 35.416244633357714], [-97.07402056222462, 35.41805777868132], [-97.07180576965801, 35.41803101578833], [-97.07178475580325, 35.42003085914533], [-97.08061590806258, 35.42013733671852], [-97.08065936180193, 35.41652934807429], [-97.08066126279684, 35.41645558206106], [-97.08075256655344, 35.41291360842614], [-97.0807470162812, 35.409316020786136], [-97.08060053324373, 35.40931421979322], [-97.07189860101741, 35.40920691021307], [-97.07189457204518, 35.40958993428144], [-97.07182485052635, 35.41621787246467]]]}, "properties": {"LANDAREACODE": "821", "TRACTID": "821 ST 1045", "TRACTREFNUM": "4717764", "Label_Name": "Citizen Potawatomi Nation- Absentee Shawnee", "LAR_Name": "Citizen Potawatomi Nation- Absentee Shawnee", "TAAMS_Name": "Citizen Potawatomi", "REGION": "Southern Plains", "AGENCY": "Shawnee", "OWNERSHIP": "T", "TRBE_INTEREST_PERCENT": 100, "Mineral_Resources": "Surface", "EST_ACRES": 228.4}}, {"type": "Feature", "geometry": {"type": "Polygon", "coordinates": [[[-97.0871402294542, 35.41653322774794], [-97.08721003420023, 35.41292394010216], [-97.08941137676344, 35.41295248499617], [-97.08949370023774, 35.40568989369958], [-97.0850707991093, 35.405674730919976], [-97.08507075310787, 35.40565633591666], [-97.08064173597647, 35.40562257013405], [-97.08060041923815, 35.40924047078012], [-97.08060053324373, 35.40931421979322], [-97.08060596251038, 35.41283805842013], [-97.08051275275886, 35.4164537980683], [-97.08066126279684, 35.41645558206106], [-97.08493106688908, 35.41650679085474], [-97.0871402294542, 35.41653322774794]]]}, "properties": {"LANDAREACODE": "821", "TRACTID": "821 ST 1046", "TRACTREFNUM": "4416371", "Label_Name": "Citizen Potawatomi Nation- Absentee Shawnee", "LAR_Name": "Citizen Potawatomi Nation- Absentee Shawnee", "TAAMS_Name": "Citizen Potawatomi", "REGION": "Southern Plains", "AGENCY": "Shawnee", "OWNERSHIP": "T", "TRBE_INTEREST_PERCENT": 100, "Mineral_Resources": "Surface", "EST_ACRES": 218.6}}, {"type": "Feature", "geometry": {"type": "Polygon", "coordinates": [[[-97.14614665106784, 35.210274522015226], [-97.14174585894662, 35.21025707223193], [-97.14174343821368, 35.21386635387669], [-97.14614498033501, 35.21388285765977], [-97.1461325315999, 35.2174963623057], [-97.1505373797219, 35.217510978088214], [-97.1549422008438, 35.21752556787067], [-97.15494803757746, 35.21391539722575], [-97.15494817831002, 35.21030894658178], [-97.15054741418895, 35.21029183179847], [-97.14614665106784, 35.210274522015226]]]}, "properties": {"LANDAREACODE": "820", "TRACTID": "820 ST 513 -C", "TRACTREFNUM": "780127", "Label_Name": "Absentee Shawnee", "LAR_Name": "Absentee Shawnee", "TAAMS_Name": "Absentee Shawnee", "REGION": "Southern Plains", "AGENCY": "Shawnee", "OWNERSHIP": "T", "TRBE_INTEREST_PERCENT": 100, "Mineral_Resources": "Surface", "EST_ACRES": 198.1}}, {"type": "Feature", "geometry": {"type": "Polygon", "coordinates": [[[-97.06302828256754, 35.41998861757968], [-97.07178472180325, 35.420030884145284], [-97.07175452379555, 35.4200306511468], [-97.07183045627157, 35.41281466985866], [-97.06750321416595, 35.41278262407124], [-97.06755992690908, 35.409177329426605], [-97.0632212508007, 35.40914756564013], [-97.0632180248114, 35.409301590667695], [-97.06302828256754, 35.41998861757968]]]}, "properties": {"LANDAREACODE": "821", "TRACTID": "821 ST 1044", "TRACTREFNUM": "4717762", "Label_Name": "Citizen Potawatomi Nation- Absentee Shawnee", "LAR_Name": "Citizen Potawatomi Nation- Absentee Shawnee", "TAAMS_Name": "Citizen Potawatomi", "REGION": "Southern Plains", "AGENCY": "Shawnee", "OWNERSHIP": "T", "TRBE_INTEREST_PERCENT": 100, "Mineral_Resources": "Surface", "EST_ACRES": 195.3}}, {"type": "Feature", "geometry": {"type": "Polygon", "coordinates": [[[-97.08061500388455, 35.39119266556651], [-97.0761956527571, 35.39117980278692], [-97.07620297903077, 35.394796083430435], [-97.0762103063045, 35.39841230907397], [-97.0806314344325, 35.398426418853575], [-97.08505256156045, 35.39844036463318], [-97.08504345728612, 35.39482300198968], [-97.0894636964137, 35.39483627976921], [-97.08945998731177, 35.39349311053028], [-97.08770458186538, 35.39350603762106], [-97.08769215177668, 35.39236869441918], [-97.08945684622549, 35.39235575032792], [-97.08945370413917, 35.39121838912563], [-97.08503435301189, 35.39120552734607], [-97.08061500388455, 35.39119266556651]]]}, "properties": {"LANDAREACODE": "821", "TRACTID": "821 ST 1038", "TRACTREFNUM": "34302527", "Label_Name": "Citizen Potawatomi Nation- Absentee Shawnee", "LAR_Name": "Citizen Potawatomi Nation- Absentee Shawnee", "TAAMS_Name": "Citizen Potawatomi", "REGION": "Southern Plains", "AGENCY": "Shawnee", "OWNERSHIP": "T", "TRBE_INTEREST_PERCENT": 100, "Mineral_Resources": "Surface", "EST_ACRES": 193.9}}, {"type": "Feature", "geometry": {"type": "MultiPolygon", "coordinates": [[[[-96.89076399666975, 35.30061349692931], [-96.87762871431222, 35.30058354258087], [-96.87763329158298, 35.304206800229046], [-96.88200852670153, 35.30421794301221], [-96.88638378782001, 35.304229056795386], [-96.89075902193844, 35.30424019857853], [-96.89076399666975, 35.30061349692931]]], [[[-96.89515058952091, 35.29699499206247], [-96.89515875625307, 35.29336681741284], [-96.8929663626929, 35.293363237521746], [-96.89295979196103, 35.296990788171286], [-96.89076899640115, 35.296986544280045], [-96.89076399666975, 35.30061349692931], [-96.8951424497888, 35.300623167712125], [-96.89515058952091, 35.29699499206247]]]]}, "properties": {"LANDAREACODE": "821", "TRACTID": "821 ST 1023", "TRACTREFNUM": "6805349", "Label_Name": "Citizen Potawatomi Nation- Absentee Shawnee", "LAR_Name": "Citizen Potawatomi Nation- Absentee Shawnee", "TAAMS_Name": "Citizen Potawatomi", "REGION": "Southern Plains", "AGENCY": "Shawnee", "OWNERSHIP": "T", "TRBE_INTEREST_PERCENT": 100, "Mineral_Resources": "Surface", "EST_ACRES": 177.9}}, {"type": "Feature", "geometry": {"type": "Polygon", "coordinates": [[[-94.64254891148846, 36.86182741110688], [-94.63984472377216, 36.86181894124684], [-94.63945300566843, 36.861818004267185], [-94.63713981005579, 36.861812471387225], [-94.63713982224988, 36.864207833814525], [-94.63713983034964, 36.86543845003408], [-94.63713986054601, 36.86786169046634], [-94.63713987464354, 36.86906439768087], [-94.63944124425305, 36.86906976056136], [-94.63984522635998, 36.869070702540405], [-94.63713987464354, 36.86906439768087], [-94.63571618626656, 36.869061874754884], [-94.63571618427325, 36.86914486376972], [-94.63628829042979, 36.86920824475109], [-94.63696511662138, 36.86936170774305], [-94.63713987667147, 36.86940908074233], [-94.63984529744688, 36.870142398731566], [-94.6425501822222, 36.87087549472072], [-94.643610264526, 36.8711627847165], [-94.64394324761967, 36.8712309907112], [-94.64442101375407, 36.87132885270367], [-94.64512214794846, 36.871437929686415], [-94.6452561259842, 36.871441574680034], [-94.64525568279284, 36.86908317225949], [-94.64525544269272, 36.8678491650394], [-94.645255310638, 36.86717453391905], [-94.6445429104494, 36.86717346895615], [-94.64454258931012, 36.86545626664985], [-94.6452549744987, 36.86545733161278], [-94.64525473139734, 36.86420742338987], [-94.6452542662047, 36.86183149196607], [-94.6439531218602, 36.8618295290338], [-94.64254891148846, 36.86182741110688]], [[-94.64394550544596, 36.86908122332768], [-94.64254994107648, 36.86907914640036], [-94.64254994107648, 36.86907914540038], [-94.64394550544596, 36.86908122332768]]]}, "properties": {"LANDAREACODE": "921", "TRACTID": "921 ST 1001", "TRACTREFNUM": "52000467", "Label_Name": "Eastern Shawnee", "LAR_Name": "Eastern Shawnee", "TAAMS_Name": "Eastern Shawnee", "REGION": "Eastern Oklahoma", "AGENCY": "Miami", "OWNERSHIP": "T", "TRBE_INTEREST_PERCENT": 100, "Mineral_Resources": "Surface", "EST_ACRES": 169.5}}, {"type": "Feature", "geometry": {"type": "Polygon", "coordinates": [[[-94.6304515695128, 36.82754064661984], [-94.63044079721658, 36.82390947397199], [-94.6304369690544, 36.82191423961588], [-94.62743296626006, 36.821921645774], [-94.6259247299239, 36.82270105999195], [-94.62592506194103, 36.8229120540296], [-94.62441132159127, 36.82354121222103], [-94.62372836143994, 36.823905625321764], [-94.62313591128333, 36.823907473352996], [-94.62315464028997, 36.823928609355825], [-94.62314035531342, 36.82426554941673], [-94.6225265263328, 36.826516730850805], [-94.62224940134162, 36.82753302704676], [-94.62224843634166, 36.82753704404757], [-94.6217749063757, 36.829509113424436], [-94.62147581337013, 36.83041985060272], [-94.62144709536862, 36.830495402617714], [-94.62144865742263, 36.83115826673598], [-94.62595222161424, 36.83115580650034], [-94.63046178580825, 36.83116265026601], [-94.6304515695128, 36.82754064661984], [-94.62593717131766, 36.827534328854476], [-94.62594468046568, 36.82934129717673], [-94.62593717031761, 36.82753432785442], [-94.6304515695128, 36.82754064661984]]]}, "properties": {"LANDAREACODE": "921", "TRACTID": "921 ST 1002", "TRACTREFNUM": "11602248", "Label_Name": "Eastern Shawnee", "LAR_Name": "Eastern Shawnee", "TAAMS_Name": "Eastern Shawnee", "REGION": "Eastern Oklahoma", "AGENCY": "Miami", "OWNERSHIP": "T", "TRBE_INTEREST_PERCENT": 100, "Mineral_Resources": "Surface", "EST_ACRES": 168.2}}, {"type": "Feature", "geometry": {"type": "Polygon", "coordinates": [[[-96.82033097236693, 35.24257622604692], [-96.81591366823787, 35.24257569326677], [-96.81149633610869, 35.24257502148663], [-96.80707900597945, 35.24257418470647], [-96.80707982624729, 35.24619169935537], [-96.8114899613747, 35.24619200913582], [-96.81590007150203, 35.24619234691621], [-96.8203102066293, 35.246192657696554], [-96.82472031575652, 35.24619296647697], [-96.82473288749206, 35.242576589827706], [-96.82033097236693, 35.24257622604692]]]}, "properties": {"LANDAREACODE": "821", "TRACTID": "821 ST 1047", "TRACTREFNUM": "4718626", "Label_Name": "Citizen Potawatomi Nation- Absentee Shawnee", "LAR_Name": "Citizen Potawatomi Nation- Absentee Shawnee", "TAAMS_Name": "Citizen Potawatomi", "REGION": "Southern Plains", "AGENCY": "Shawnee", "OWNERSHIP": "T", "TRBE_INTEREST_PERCENT": 100, "Mineral_Resources": "Surface", "EST_ACRES": 159.1}}, {"type": "Feature", "geometry": {"type": "Polygon", "coordinates": [[[-94.66327934587372, 36.860594802802275], [-94.66328075398049, 36.86190735803634], [-94.66328351912769, 36.86371362735827], [-94.66328510016804, 36.86420653244608], [-94.66650516501993, 36.864206369277525], [-94.67103948721777, 36.86418510803641], [-94.67104309892547, 36.86056779339119], [-94.67103001262907, 36.85695372974734], [-94.6664928234314, 36.8569853519904], [-94.66327314557968, 36.856986183159044], [-94.66327466668638, 36.85829798939293], [-94.66327934587372, 36.860594802802275]]]}, "properties": {"LANDAREACODE": "921", "TRACTID": "921 ST 1010", "TRACTREFNUM": "4720059", "Label_Name": "Eastern Shawnee", "LAR_Name": "Eastern Shawnee", "TAAMS_Name": "Eastern Shawnee", "REGION": "Eastern Oklahoma", "AGENCY": "Miami", "OWNERSHIP": "T", "TRBE_INTEREST_PERCENT": 100, "Mineral_Resources": "Surface", "EST_ACRES": 136.9}}, {"type": "Feature", "geometry": {"type": "MultiPolygon", "coordinates": [[[[-96.90395733631007, 35.30425043192012], [-96.9039666960426, 35.300625395271105], [-96.90397137290897, 35.29881419294684], [-96.89514655565377, 35.29879421838464], [-96.8951424497888, 35.300623167712125], [-96.89513428405672, 35.30425131236167], [-96.8995457961834, 35.304250871140916], [-96.90395733631007, 35.30425043192012]]], [[[-96.91278038956308, 35.30424954847852], [-96.91278314949322, 35.303302127308896], [-96.91056813292937, 35.30332546842391], [-96.91055203599406, 35.30424979259003], [-96.91278038956308, 35.30424954847852]]]]}, "properties": {"LANDAREACODE": "821", "TRACTID": "821 ST 1024", "TRACTREFNUM": "7705942", "Label_Name": "Citizen Potawatomi Nation- Absentee Shawnee", "LAR_Name": "Citizen Potawatomi Nation- Absentee Shawnee", "TAAMS_Name": "Citizen Potawatomi", "REGION": "Southern Plains", "AGENCY": "Shawnee", "OWNERSHIP": "T", "TRBE_INTEREST_PERCENT": 100, "Mineral_Resources": "Surface", "EST_ACRES": 124.9}}, {"type": "Feature", "geometry": {"type": "Polygon", "coordinates": [[[-94.70721152506914, 36.86769094176706], [-94.71172798226242, 36.86767887652827], [-94.71172086396612, 36.864050587882076], [-94.70720120777206, 36.86406334812111], [-94.70268152257793, 36.86407613636011], [-94.70269503687577, 36.86770301000582], [-94.7027127171748, 36.87132993765119], [-94.70722217336642, 36.871318953412995], [-94.70721152506914, 36.86769094176706]]]}, "properties": {"LANDAREACODE": "921", "TRACTID": "921 ST 1005", "TRACTREFNUM": "9804571", "Label_Name": "Eastern Shawnee", "LAR_Name": "Eastern Shawnee", "TAAMS_Name": "Eastern Shawnee", "REGION": "Eastern Oklahoma", "AGENCY": "Miami", "OWNERSHIP": "T", "TRBE_INTEREST_PERCENT": 100, "Mineral_Resources": "Surface", "EST_ACRES": 120.0}}, {"type": "Feature", "geometry": {"type": "Polygon", "coordinates": [[[-97.09770590314942, 35.24278668524293], [-97.10213820127794, 35.242783943020825], [-97.10212959900691, 35.23916469437484], [-97.09769869087872, 35.23916713159677], [-97.09548323731462, 35.239168280707744], [-97.09326778175048, 35.23916942881871], [-97.08883687362211, 35.23917156004056], [-97.08884127989215, 35.242791642687024], [-97.09327357802081, 35.24278923346501], [-97.09770590314942, 35.24278668524293]]]}, "properties": {"LANDAREACODE": "820", "TRACTID": "820 ST 406", "TRACTREFNUM": "179200096", "Label_Name": "Absentee Shawnee", "LAR_Name": "Absentee Shawnee", "TAAMS_Name": "Absentee Shawnee", "REGION": "Southern Plains", "AGENCY": "Shawnee", "OWNERSHIP": "T", "TRBE_INTEREST_PERCENT": 100, "Mineral_Resources": "Surface", "EST_ACRES": 119.9}}, {"type": "Feature", "geometry": {"type": "Polygon", "coordinates": [[[-97.08947369168826, 35.39845417141268], [-97.0894636964137, 35.39483627976921], [-97.08504345728612, 35.39482300198968], [-97.08505256156045, 35.39844036463318], [-97.08506166783482, 35.40205759027659], [-97.0850707991093, 35.405674730919976], [-97.08949370523774, 35.40568989669954], [-97.08948368396295, 35.40207203505613], [-97.08947369168826, 35.39845417141268]]]}, "properties": {"LANDAREACODE": "821", "TRACTID": "821 ST 1016", "TRACTREFNUM": "8902572", "Label_Name": "Citizen Potawatomi Nation- Absentee Shawnee", "LAR_Name": "Citizen Potawatomi Nation- Absentee Shawnee", "TAAMS_Name": "Citizen Potawatomi", "REGION": "Southern Plains", "AGENCY": "Shawnee", "OWNERSHIP": "T", "TRBE_INTEREST_PERCENT": 100, "Mineral_Resources": "Surface", "EST_ACRES": 119.4}}, {"type": "Feature", "geometry": {"type": "Polygon", "coordinates": [[[-94.63172981691662, 36.86542400831455], [-94.63443436463315, 36.865433062174645], [-94.63443446053392, 36.86420797195609], [-94.63443465033939, 36.861806528527666], [-94.63443474524303, 36.860616757315405], [-94.63443493704571, 36.85817999488063], [-94.63173083032926, 36.85817019202029], [-94.63173048752748, 36.860618821457216], [-94.63173032362288, 36.86179711366742], [-94.62902477390641, 36.86179203180805], [-94.62902428810206, 36.8642082452392], [-94.62902416615124, 36.864815876347585], [-94.62631953443454, 36.86480599048732], [-94.62631935848344, 36.865409344595], [-94.62631881663027, 36.867223374918666], [-94.62902368334696, 36.86723284577884], [-94.62902355139894, 36.86787421489325], [-94.62902331649387, 36.86904645810239], [-94.63042925686617, 36.86904876702925], [-94.63172930921047, 36.869050901961586], [-94.63172947411476, 36.86787003975091], [-94.63172981691662, 36.86542400831455]]]}, "properties": {"LANDAREACODE": "921", "TRACTID": "921 T 11", "TRACTREFNUM": "774255", "Label_Name": "Eastern Shawnee", "LAR_Name": "Eastern Shawnee", "TAAMS_Name": "Eastern Shawnee", "REGION": "Eastern Oklahoma", "AGENCY": "Miami", "OWNERSHIP": "T", "TRBE_INTEREST_PERCENT": 100, "Mineral_Resources": "Both", "EST_ACRES": 111.8}}, {"type": "Feature", "geometry": {"type": "Polygon", "coordinates": [[[-96.93005760624534, 35.30788773926446], [-96.92589206918075, 35.307872705470274], [-96.92579993542662, 35.31148879812148], [-96.92863517315017, 35.311484319978696], [-96.9289939791958, 35.31086718985042], [-96.92951642930782, 35.31058066077304], [-96.92998224841708, 35.310450775726466], [-96.93117776673337, 35.3105999306933], [-96.93176284590189, 35.310856583709906], [-96.93299183723285, 35.311087366689634], [-96.93386474847875, 35.31139703570128], [-96.93387932150677, 35.31172318275887], [-96.93377671052882, 35.312370470879706], [-96.93358621450841, 35.31274923395697], [-96.93374669255041, 35.31276332095141], [-96.93357935153365, 35.31311092102193], [-96.93356213955803, 35.313497514091935], [-96.93605039919142, 35.313472788962905], [-96.93606299416506, 35.313076120891374], [-96.93616309919061, 35.31307594688632], [-96.93658178729349, 35.3130219398557], [-96.93680906134543, 35.312940553829804], [-96.93699175602073, 35.307957736929865], [-96.93451685638709, 35.30793279904927], [-96.93005760624534, 35.30788773926446]]]}, "properties": {"LANDAREACODE": "821", "TRACTID": "821 ST 1025", "TRACTREFNUM": "81800663", "Label_Name": "Citizen Potawatomi Nation- Absentee Shawnee", "LAR_Name": "Citizen Potawatomi Nation- Absentee Shawnee", "TAAMS_Name": "Citizen Potawatomi", "REGION": "Southern Plains", "AGENCY": "Shawnee", "OWNERSHIP": "T", "TRBE_INTEREST_PERCENT": 100, "Mineral_Resources": "Surface", "EST_ACRES": 104.9}}, {"type": "Feature", "geometry": {"type": "Polygon", "coordinates": [[[-97.05852698571255, 35.38398623339573], [-97.05848349068148, 35.383720199350535], [-97.05685252719067, 35.382720987254636], [-97.05444484643115, 35.3807810980303], [-97.05445291046338, 35.38118258710142], [-97.05432386951244, 35.3822747513025], [-97.05433214454551, 35.382686788375494], [-97.05421152252521, 35.3828257854063], [-97.05410083349709, 35.38282723341215], [-97.05410488558688, 35.38400995462269], [-97.05412632386223, 35.387603513261766], [-97.05854264498716, 35.38758912703675], [-97.06295671811138, 35.38757457381185], [-97.06294911383813, 35.38396237516882], [-97.05852698571255, 35.38398623339573]]]}, "properties": {"LANDAREACODE": "821", "TRACTID": "821 ST 1029", "TRACTREFNUM": "9502967", "Label_Name": "Citizen Potawatomi Nation- Absentee Shawnee", "LAR_Name": "Citizen Potawatomi Nation- Absentee Shawnee", "TAAMS_Name": "Citizen Potawatomi", "REGION": "Southern Plains", "AGENCY": "Shawnee", "OWNERSHIP": "T", "TRBE_INTEREST_PERCENT": 100, "Mineral_Resources": "Surface", "EST_ACRES": 97.2}}, {"type": "Feature", "geometry": {"type": "Polygon", "coordinates": [[[-97.05439115539019, 35.38041798196828], [-97.05763628221591, 35.380395644800956], [-97.05759657647575, 35.38399123844352], [-97.06631445769474, 35.38394410999607], [-97.06633476659026, 35.38248427973496], [-97.06196179333496, 35.38061291062185], [-97.06143878620098, 35.380604523646674], [-97.05914104454143, 35.37962112058719], [-97.05879336744177, 35.37947469657856], [-97.05844322234182, 35.3793322315708], [-97.05809067724157, 35.379193754563914], [-97.05773580014099, 35.379059292557834], [-97.05737866104013, 35.378928869552546], [-97.05701932793903, 35.378802512548134], [-97.0566578708377, 35.378680246544526], [-97.05629435973617, 35.378562093541824], [-97.05622805370379, 35.37835619250847], [-97.05613768267956, 35.37834031451018], [-97.05604590465548, 35.37833127151316], [-97.05595349663176, 35.37832914051746], [-97.05586123860861, 35.37833393952296], [-97.0557699105862, 35.378345627529626], [-97.05568028656474, 35.37836410653744], [-97.05559312254442, 35.378389218546296], [-97.05550915652535, 35.378420753556135], [-97.05546859551637, 35.37843884756139], [-97.05542909850777, 35.37845844256689], [-97.05539074749959, 35.37847949757258], [-97.05535362449179, 35.378501968578476], [-97.05531780748446, 35.378525807584516], [-97.0552833734776, 35.378550963590726], [-97.05525039347116, 35.378577383597076], [-97.05521893846522, 35.37860501160358], [-97.05518907545975, 35.378633790610195], [-97.05516086645481, 35.37866365761696], [-97.05513437045033, 35.37869455062376], [-97.05510964544641, 35.37872640463074], [-97.05508674244304, 35.378759151637695], [-97.05506571144024, 35.37879272264477], [-97.05504659443791, 35.37882704665184], [-97.05502943343615, 35.37886205065894], [-97.05490851742367, 35.37910601670845], [-97.05440237934195, 35.37973639984631], [-97.05439559737113, 35.380148184919996], [-97.0543921933858, 35.380354992956974], [-97.05439115539019, 35.38041798196828]]]}, "properties": {"LANDAREACODE": "821", "TRACTID": "821 ST 1011", "TRACTREFNUM": "338800000", "Label_Name": "Citizen Potawatomi Nation- Absentee Shawnee", "LAR_Name": "Citizen Potawatomi Nation- Absentee Shawnee", "TAAMS_Name": "Citizen Potawatomi", "REGION": "Southern Plains", "AGENCY": "Shawnee", "OWNERSHIP": "T", "TRBE_INTEREST_PERCENT": 100, "Mineral_Resources": "Surface", "EST_ACRES": 83.6}}, {"type": "Feature", "geometry": {"type": "Polygon", "coordinates": [[[-97.058534084701, 35.42369869246681], [-97.06296923882974, 35.423669691237826], [-97.06297457955839, 35.42004863259305], [-97.05856950743583, 35.42005749481692], [-97.05416443731319, 35.42006635504075], [-97.0541626184052, 35.421293998259365], [-97.05429978844671, 35.42138049326785], [-97.0546212335502, 35.42166627530249], [-97.05497381967145, 35.42208295535887], [-97.0552471437678, 35.42243642740802], [-97.05542556783479, 35.4227223004499], [-97.0554527118488, 35.42281631846528], [-97.05579848595556, 35.42306260249165], [-97.05588439899279, 35.423266584523624], [-97.05626053610169, 35.423438274535215], [-97.05652789218189, 35.423598008550165], [-97.05661302621168, 35.42370581456502], [-97.05699261734469, 35.424186487631445], [-97.05685192935522, 35.42480232874818], [-97.05653311531466, 35.425343465860536], [-97.0564595953134, 35.425575715905595], [-97.05650763833876, 35.42574984793415], [-97.05671489940622, 35.425943201958155], [-97.0568531014472, 35.42601932296471], [-97.05715598252608, 35.42604151695338], [-97.05735893657584, 35.426014708938325], [-97.05750037260029, 35.425860735903775], [-97.05754940459364, 35.4256067148561], [-97.0574927915609, 35.42536319981565], [-97.05758493056929, 35.42516265177528], [-97.05773533959287, 35.42496710673291], [-97.05803973764664, 35.42465011666109], [-97.05829225269862, 35.42448563361908], [-97.05854219875614, 35.42440303859176], [-97.058534084701, 35.42369869246681]]]}, "properties": {"LANDAREACODE": "821", "TRACTID": "821 ST 1017", "TRACTREFNUM": "60201091", "Label_Name": "Citizen Potawatomi Nation- Absentee Shawnee", "LAR_Name": "Citizen Potawatomi Nation- Absentee Shawnee", "TAAMS_Name": "Citizen Potawatomi", "REGION": "Southern Plains", "AGENCY": "Shawnee", "OWNERSHIP": "T", "TRBE_INTEREST_PERCENT": 100, "Mineral_Resources": "Surface", "EST_ACRES": 79.8}}, {"type": "Feature", "geometry": {"type": "Polygon", "coordinates": [[[-96.8290243958292, 35.38019360625624], [-96.82469467172385, 35.38021829747796], [-96.82465098798339, 35.38383636412703], [-96.82900196609489, 35.38382114390589], [-96.83335294420634, 35.38380581268478], [-96.83335412293444, 35.38016877703455], [-96.8290243958292, 35.38019360625624]]]}, "properties": {"LANDAREACODE": "820", "TRACTID": "820 ST 261", "TRACTREFNUM": "48601413", "Label_Name": "Absentee Shawnee", "LAR_Name": "Absentee Shawnee", "TAAMS_Name": "Absentee Shawnee", "REGION": "Southern Plains", "AGENCY": "Shawnee", "OWNERSHIP": "T", "TRBE_INTEREST_PERCENT": 100, "Mineral_Resources": "Surface", "EST_ACRES": 78.4}}, {"type": "Feature", "geometry": {"type": "Polygon", "coordinates": [[[-96.93901475599252, 35.30064620152125], [-96.93904285672984, 35.297021860871766], [-96.93579110789972, 35.29702032503419], [-96.93577118605064, 35.29911642041003], [-96.93459159774876, 35.299106337467244], [-96.93457696485933, 35.3006411987425], [-96.93454244412023, 35.30426237239173], [-96.93898668125527, 35.30427023617068], [-96.93901475599252, 35.30064620152125]]]}, "properties": {"LANDAREACODE": "821", "TRACTID": "821 ST 1019", "TRACTREFNUM": "9702549", "Label_Name": "Citizen Potawatomi Nation- Absentee Shawnee", "LAR_Name": "Citizen Potawatomi Nation- Absentee Shawnee", "TAAMS_Name": "Citizen Potawatomi", "REGION": "Southern Plains", "AGENCY": "Shawnee", "OWNERSHIP": "T", "TRBE_INTEREST_PERCENT": 100, "Mineral_Resources": "Surface", "EST_ACRES": 73.9}}, {"type": "Feature", "geometry": {"type": "Polygon", "coordinates": [[[-96.78028598726725, 35.4056474782541], [-96.78049714378409, 35.398474566960765], [-96.78050077777631, 35.398358523939834], [-96.77697535687298, 35.39834284011396], [-96.77692882213246, 35.40196680576443], [-96.77688166939535, 35.4056379574233], [-96.78028598726725, 35.4056474782541]]]}, "properties": {"LANDAREACODE": "821", "TRACTID": "821 ST 1039", "TRACTREFNUM": "36406103", "Label_Name": "Citizen Potawatomi Nation- Absentee Shawnee", "LAR_Name": "Citizen Potawatomi Nation- Absentee Shawnee", "TAAMS_Name": "Citizen Potawatomi", "REGION": "Southern Plains", "AGENCY": "Shawnee", "OWNERSHIP": "T", "TRBE_INTEREST_PERCENT": 100, "Mineral_Resources": "Surface", "EST_ACRES": 62.9}}, {"type": "Feature", "geometry": {"type": "Polygon", "coordinates": [[[-96.93891229323624, 35.30427010617439], [-96.9345430921153, 35.304194491379555], [-96.93454244412023, 35.30426237239173], [-96.93452175611495, 35.304262336392725], [-96.93439220934708, 35.30782306303586], [-96.93449960337463, 35.307824873030846], [-96.9368667359819, 35.30786473191943], [-96.9368634009879, 35.307956444936], [-96.93668051331603, 35.312986585844456], [-96.93667448032687, 35.313152496874366], [-96.93669519532949, 35.31311643286692], [-96.93850271874672, 35.31252417967054], [-96.9386851767967, 35.31256907766944], [-96.93885106149881, 35.308003503844894], [-96.93752566215868, 35.30797941690697], [-96.93755161211206, 35.307265465778], [-96.93887704045214, 35.307288388715754], [-96.93898664425534, 35.304271393170886], [-96.93891229323624, 35.30427010617439]]]}, "properties": {"LANDAREACODE": "821", "TRACTID": "821 ST 1018", "TRACTREFNUM": "79000816", "Label_Name": "Citizen Potawatomi Nation- Absentee Shawnee", "LAR_Name": "Citizen Potawatomi Nation- Absentee Shawnee", "TAAMS_Name": "Citizen Potawatomi", "REGION": "Southern Plains", "AGENCY": "Shawnee", "OWNERSHIP": "T", "TRBE_INTEREST_PERCENT": 100, "Mineral_Resources": "Surface", "EST_ACRES": 62.3}}, {"type": "Feature", "geometry": {"type": "Polygon", "coordinates": [[[-94.68461782556435, 36.82411069417794], [-94.68461384538149, 36.821862489776926], [-94.6801113851904, 36.82185695001126], [-94.68011642237356, 36.824106098412344], [-94.68012964167166, 36.82774941306175], [-94.68400748769709, 36.82774799785885], [-94.6840008655365, 36.825784091508744], [-94.68462348570115, 36.82578385147622], [-94.68461782556435, 36.82411069417794]]]}, "properties": {"LANDAREACODE": "921", "TRACTID": "921 ST 1007", "TRACTREFNUM": "6308436", "Label_Name": "Eastern Shawnee", "LAR_Name": "Eastern Shawnee", "TAAMS_Name": "Eastern Shawnee", "REGION": "Eastern Oklahoma", "AGENCY": "Miami", "OWNERSHIP": "T", "TRBE_INTEREST_PERCENT": 100, "Mineral_Resources": "Surface", "EST_ACRES": 61.8}}, {"type": "Feature", "geometry": {"type": "Polygon", "coordinates": [[[-94.67784522154376, 36.845991352435654], [-94.6801100961444, 36.84601126232072], [-94.68011215484826, 36.84234719766704], [-94.67558287364609, 36.842294935894586], [-94.67558037294306, 36.845971387550534], [-94.67557770424011, 36.84964758920639], [-94.67784285484035, 36.84966144309033], [-94.67784522154376, 36.845991352435654]]]}, "properties": {"LANDAREACODE": "921", "TRACTID": "921 ST 1003", "TRACTREFNUM": "9605584", "Label_Name": "Eastern Shawnee", "LAR_Name": "Eastern Shawnee", "TAAMS_Name": "Eastern Shawnee", "REGION": "Eastern Oklahoma", "AGENCY": "Miami", "OWNERSHIP": "T", "TRBE_INTEREST_PERCENT": 100, "Mineral_Resources": "Surface", "EST_ACRES": 60.9}}, {"type": "Feature", "geometry": {"type": "Polygon", "coordinates": [[[-96.94638950153274, 35.28261127592711], [-96.93934290973164, 35.28257555727305], [-96.9391875396919, 35.28257475428065], [-96.94108958144797, 35.286213237836385], [-96.94794426020022, 35.28625067550027], [-96.9479473681217, 35.28518396230934], [-96.94638378372197, 35.285175457385975], [-96.94638950153274, 35.28261127592711]]]}, "properties": {"LANDAREACODE": "821", "TRACTID": "821 ST 1004", "TRACTREFNUM": "773276", "Label_Name": "Citizen Potawatomi Nation- Absentee Shawnee", "LAR_Name": "Citizen Potawatomi Nation- Absentee Shawnee", "TAAMS_Name": "Citizen Potawatomi", "REGION": "Southern Plains", "AGENCY": "Shawnee", "OWNERSHIP": "T", "TRBE_INTEREST_PERCENT": 100, "Mineral_Resources": "Surface", "EST_ACRES": 60.6}}, {"type": "Feature", "geometry": {"type": "Polygon", "coordinates": [[[-96.91263150479512, 35.307875645134544], [-96.91357263503625, 35.307886607089344], [-96.91469236732316, 35.307899639035675], [-96.91465518338114, 35.30880568919955], [-96.91469874739231, 35.30880619519747], [-96.9146773384257, 35.30932786029182], [-96.91468904745611, 35.309696075357074], [-96.91468769545817, 35.30972902136305], [-96.91473796247107, 35.309729606360676], [-96.91468623955178, 35.31098983958863], [-96.91440937048085, 35.31098661760191], [-96.91415009566177, 35.31430357320801], [-96.91458491177451, 35.314326409190336], [-96.91501599347362, 35.30881092918243], [-96.91737601507836, 35.3088391620694], [-96.91866946707084, 35.304303491193444], [-96.91278039056307, 35.304249551478485], [-96.91277667256885, 35.30434015749489], [-96.91263150479512, 35.307875645134544]]]}, "properties": {"LANDAREACODE": "821", "TRACTID": "821 ST 1043", "TRACTREFNUM": "41802694", "Label_Name": "Citizen Potawatomi Nation- Absentee Shawnee", "LAR_Name": "Citizen Potawatomi Nation- Absentee Shawnee", "TAAMS_Name": "Citizen Potawatomi", "REGION": "Southern Plains", "AGENCY": "Shawnee", "OWNERSHIP": "T", "TRBE_INTEREST_PERCENT": 100, "Mineral_Resources": "Surface", "EST_ACRES": 60.6}}, {"type": "Feature", "geometry": {"type": "Polygon", "coordinates": [[[-96.93461148559855, 35.29701974709314], [-96.93462874646818, 35.29520903476844], [-96.93020061233769, 35.29520822598984], [-96.93018014146715, 35.29701749431444], [-96.93015965959658, 35.29882676163905], [-96.93013917472605, 35.30063602896363], [-96.93457696485933, 35.3006411987425], [-96.93461148559855, 35.29701974709314]]]}, "properties": {"LANDAREACODE": "821", "TRACTID": "821 ST 1014", "TRACTREFNUM": "19302067", "Label_Name": "Citizen Potawatomi Nation- Absentee Shawnee", "LAR_Name": "Citizen Potawatomi Nation- Absentee Shawnee", "TAAMS_Name": "Citizen Potawatomi", "REGION": "Southern Plains", "AGENCY": "Shawnee", "OWNERSHIP": "T", "TRBE_INTEREST_PERCENT": 100, "Mineral_Resources": "Surface", "EST_ACRES": 60.0}}, {"type": "Feature", "geometry": {"type": "Polygon", "coordinates": [[[-94.62143159600348, 36.83840016302996], [-94.62146251671894, 36.83477921438184], [-94.61819654985464, 36.83478049055263], [-94.6182005491484, 36.838401078198885], [-94.6182045494423, 36.84202163784513], [-94.62150673531626, 36.84202114167251], [-94.62143159600348, 36.83840016302996]]]}, "properties": {"LANDAREACODE": "921", "TRACTID": "921 T B10", "TRACTREFNUM": "774262", "Label_Name": "Eastern Shawnee", "LAR_Name": "Eastern Shawnee", "TAAMS_Name": "Eastern Shawnee", "REGION": "Eastern Oklahoma", "AGENCY": "Miami", "OWNERSHIP": "T", "TRBE_INTEREST_PERCENT": 100, "Mineral_Resources": "Both", "EST_ACRES": 57.6}}, {"type": "Feature", "geometry": {"type": "Polygon", "coordinates": [[[-94.64254839619456, 36.85820151646009], [-94.63984448347833, 36.85819304560001], [-94.6398446426744, 36.86061262903167], [-94.63984472377216, 36.86181894124684], [-94.64254891148846, 36.86182741110688], [-94.6439531218602, 36.8618295290338], [-94.6452542662047, 36.86183149196607], [-94.64525402710551, 36.86060850174793], [-94.6452539920911, 36.860430388716175], [-94.64575108216835, 36.85976006057056], [-94.64594005709253, 36.85820754828373], [-94.64525355691073, 36.85820562431931], [-94.64395692956748, 36.8582036543868], [-94.64254839619456, 36.85820151646009]]]}, "properties": {"LANDAREACODE": "921", "TRACTID": "921 ST 1000", "TRACTREFNUM": "329200169", "Label_Name": "Eastern Shawnee", "LAR_Name": "Eastern Shawnee", "TAAMS_Name": "Eastern Shawnee", "REGION": "Eastern Oklahoma", "AGENCY": "Miami", "OWNERSHIP": "T", "TRBE_INTEREST_PERCENT": 100, "Mineral_Resources": "Both", "EST_ACRES": 50.5}}, {"type": "Feature", "geometry": {"type": "Polygon", "coordinates": [[[-97.07843644041652, 35.405651939250504], [-97.07733071413439, 35.4056481413056], [-97.07733073227004, 35.40745113862652], [-97.07622456798771, 35.40744680168154], [-97.0740122334231, 35.40743808679157], [-97.07179989785851, 35.407429370901646], [-97.07179880492592, 35.408329482061895], [-97.07401158249073, 35.40833875795195], [-97.07401093155835, 35.409239429112304], [-97.07622414812325, 35.409249261002415], [-97.08065055225309, 35.409268761782606], [-97.08064922311694, 35.407464149461475], [-97.08064789398075, 35.40565953614034], [-97.07843644041652, 35.405651939250504]]]}, "properties": {"LANDAREACODE": "820", "TRACTID": "820 ST 178 -C", "TRACTREFNUM": "7103436", "Label_Name": "Absentee Shawnee", "LAR_Name": "Absentee Shawnee", "TAAMS_Name": "Absentee Shawnee", "REGION": "Southern Plains", "AGENCY": "Shawnee", "OWNERSHIP": "T", "TRBE_INTEREST_PERCENT": 100, "Mineral_Resources": "Surface", "EST_ACRES": 49.6}}, {"type": "Feature", "geometry": {"type": "MultiPolygon", "coordinates": [[[[-96.87763329158298, 35.304206800229046], [-96.87763387085306, 35.30783305787796], [-96.88203274597724, 35.30783881165896], [-96.88200852670153, 35.30421794301221], [-96.87763329158298, 35.304206800229046]]], [[[-96.87763481212305, 35.31145617852621], [-96.88204860937508, 35.31312727660439], [-96.88204565824954, 35.31145168130475], [-96.87763481212305, 35.31145617852621]]]]}, "properties": {"LANDAREACODE": "821", "TRACTID": "821 ST 1053", "TRACTREFNUM": "5413850", "Label_Name": "Citizen Potawatomi Nation- Absentee Shawnee", "LAR_Name": "Citizen Potawatomi Nation- Absentee Shawnee", "TAAMS_Name": "Citizen Potawatomi", "REGION": "Southern Plains", "AGENCY": "Shawnee", "OWNERSHIP": "T", "TRBE_INTEREST_PERCENT": 100, "Mineral_Resources": "Surface", "EST_ACRES": 48.8}}, {"type": "Feature", "geometry": {"type": "Polygon", "coordinates": [[[-94.69361726376316, 36.82187306830836], [-94.68911555457237, 36.821867861542685], [-94.68911925675506, 36.82411512194347], [-94.69362068494567, 36.82411938270897], [-94.69792037608285, 36.82412329948489], [-94.69790264789658, 36.82187784208524], [-94.69361726376316, 36.82187306830836]]]}, "properties": {"LANDAREACODE": "921", "TRACTID": "921 ST 1006", "TRACTREFNUM": "10307631", "Label_Name": "Eastern Shawnee", "LAR_Name": "Eastern Shawnee", "TAAMS_Name": "Eastern Shawnee", "REGION": "Eastern Oklahoma", "AGENCY": "Miami", "OWNERSHIP": "T", "TRBE_INTEREST_PERCENT": 100, "Mineral_Resources": "Surface", "EST_ACRES": 48.3}}, {"type": "Feature", "geometry": {"type": "Polygon", "coordinates": [[[-96.88204565824954, 35.31145168130475], [-96.88207441719467, 35.31061598615376], [-96.8820748721929, 35.31059092814926], [-96.88649849332572, 35.31062812393462], [-96.88650846728724, 35.31007711083554], [-96.88626806422567, 35.31007509384717], [-96.88208487515443, 35.310039917050176], [-96.88212409800362, 35.30788001366175], [-96.877700607871, 35.307845141876776], [-96.87763481312304, 35.31145618352622], [-96.88187843920686, 35.31145185531314], [-96.88204565824954, 35.31145168130475]]]}, "properties": {"LANDAREACODE": "821", "TRACTID": "821 ST 1050", "TRACTREFNUM": "14805038", "Label_Name": "Citizen Potawatomi Nation- Absentee Shawnee", "LAR_Name": "Citizen Potawatomi Nation- Absentee Shawnee", "TAAMS_Name": "Citizen Potawatomi", "REGION": "Southern Plains", "AGENCY": "Shawnee", "OWNERSHIP": "T", "TRBE_INTEREST_PERCENT": 100, "Mineral_Resources": "Surface", "EST_ACRES": 45.6}}, {"type": "Feature", "geometry": {"type": "Polygon", "coordinates": [[[-96.93009823798508, 35.30425453661276], [-96.93005760624534, 35.30788773926446], [-96.93449875937964, 35.30789496404339], [-96.93454244412023, 35.30426237239173], [-96.93009823798508, 35.30425453661276]]]}, "properties": {"LANDAREACODE": "821", "TRACTID": "821 ST 1015", "TRACTREFNUM": "8902567", "Label_Name": "Citizen Potawatomi Nation- Absentee Shawnee", "LAR_Name": "Citizen Potawatomi Nation- Absentee Shawnee", "TAAMS_Name": "Citizen Potawatomi", "REGION": "Southern Plains", "AGENCY": "Shawnee", "OWNERSHIP": "T", "TRBE_INTEREST_PERCENT": 100, "Mineral_Resources": "Surface", "EST_ACRES": 40.2}}, {"type": "Feature", "geometry": {"type": "Polygon", "coordinates": [[[-96.93013917472605, 35.30063602896363], [-96.93009823798508, 35.30425453661276], [-96.93454244412023, 35.30426237239173], [-96.93457696485933, 35.3006411987425], [-96.93013917472605, 35.30063602896363]]]}, "properties": {"LANDAREACODE": "821", "TRACTID": "821 ST 1035", "TRACTREFNUM": "773283", "Label_Name": "Citizen Potawatomi Nation- Absentee Shawnee", "LAR_Name": "Citizen Potawatomi Nation- Absentee Shawnee", "TAAMS_Name": "Citizen Potawatomi", "REGION": "Southern Plains", "AGENCY": "Shawnee", "OWNERSHIP": "T", "TRBE_INTEREST_PERCENT": 100, "Mineral_Resources": "Surface", "EST_ACRES": 40.0}}, {"type": "Feature", "geometry": {"type": "Polygon", "coordinates": [[[-97.09547092377413, 35.23193114041551], [-97.09548323731462, 35.239168280707744], [-97.09769869087872, 35.23916713159677], [-97.09769195160828, 35.235547907950625], [-97.0976845163378, 35.23193065830478], [-97.09547092377413, 35.23193114041551]]]}, "properties": {"LANDAREACODE": "820", "TRACTID": "820 ST 407 -A", "TRACTREFNUM": "179200098", "Label_Name": "Absentee Shawnee", "LAR_Name": "Absentee Shawnee", "TAAMS_Name": "Absentee Shawnee", "REGION": "Southern Plains", "AGENCY": "Shawnee", "OWNERSHIP": "T", "TRBE_INTEREST_PERCENT": 100, "Mineral_Resources": "Surface", "EST_ACRES": 40.0}}, {"type": "Feature", "geometry": {"type": "Polygon", "coordinates": [[[-96.8159286117009, 35.208190666095724], [-96.81592787983442, 35.210002451421026], [-96.82034901896446, 35.210004315201594], [-96.82475693509102, 35.21000603998271], [-96.82475585995692, 35.20819290665734], [-96.8159286117009, 35.208190666095724]]]}, "properties": {"LANDAREACODE": "821", "TRACTID": "821 T 748", "TRACTREFNUM": "33403054", "Label_Name": "Citizen Potawatomi Nation- Absentee Shawnee", "LAR_Name": "Citizen Potawatomi Nation- Absentee Shawnee", "TAAMS_Name": "Citizen Potawatomi", "REGION": "Southern Plains", "AGENCY": "Shawnee", "OWNERSHIP": "T", "TRBE_INTEREST_PERCENT": 100, "Mineral_Resources": "Both", "EST_ACRES": 39.9}}, {"type": "Feature", "geometry": {"type": "Polygon", "coordinates": [[[-97.09325733121047, 35.2319316245262], [-97.09326301548042, 35.23554901317219], [-97.09326778175048, 35.23916942881871], [-97.09548323731462, 35.239168280707744], [-97.09547092377413, 35.23193114041551], [-97.09325733121047, 35.2319316245262]]]}, "properties": {"LANDAREACODE": "820", "TRACTID": "820 ST 407 -B", "TRACTREFNUM": "179200100", "Label_Name": "Absentee Shawnee", "LAR_Name": "Absentee Shawnee", "TAAMS_Name": "Absentee Shawnee", "REGION": "Southern Plains", "AGENCY": "Shawnee", "OWNERSHIP": "T", "TRBE_INTEREST_PERCENT": 100, "Mineral_Resources": "Surface", "EST_ACRES": 39.9}}, {"type": "Feature", "geometry": {"type": "Polygon", "coordinates": [[[-96.88198834734821, 35.28609095676874], [-96.88638357747143, 35.28609834855049], [-96.8863752452, 35.28247434190215], [-96.88197482307547, 35.28246689212065], [-96.88197820414365, 35.28337290928266], [-96.88198158421184, 35.284278924444706], [-96.88198496628003, 35.285184939606744], [-96.88198834734821, 35.28609095676874]]]}, "properties": {"LANDAREACODE": "820", "TRACTID": "820 ST 201 C", "TRACTREFNUM": "4719035", "Label_Name": "Absentee Shawnee", "LAR_Name": "Absentee Shawnee", "TAAMS_Name": "Absentee Shawnee", "REGION": "Southern Plains", "AGENCY": "Shawnee", "OWNERSHIP": "T", "TRBE_INTEREST_PERCENT": 100, "Mineral_Resources": "Surface", "EST_ACRES": 39.7}}, {"type": "Feature", "geometry": {"type": "Polygon", "coordinates": [[[-96.81154955900833, 35.362107855898095], [-96.81154420627719, 35.36572558654555], [-96.8159571794053, 35.365718671323116], [-96.81596730913826, 35.362109273676936], [-96.81154955900833, 35.362107855898095]]]}, "properties": {"LANDAREACODE": "820", "TRACTID": "820 ST 259", "TRACTREFNUM": "53801392", "Label_Name": "Absentee Shawnee", "LAR_Name": "Absentee Shawnee", "TAAMS_Name": "Absentee Shawnee", "REGION": "Southern Plains", "AGENCY": "Shawnee", "OWNERSHIP": "T", "TRBE_INTEREST_PERCENT": 100, "Mineral_Resources": "Surface", "EST_ACRES": 39.7}}, {"type": "Feature", "geometry": {"type": "MultiPolygon", "coordinates": [[[[-96.915028849059, 35.28976119177418], [-96.91282259649557, 35.28975937888417], [-96.9128120447623, 35.29338191353281], [-96.91501042332379, 35.293384213423295], [-96.915028849059, 35.28976119177418]]], [[[-96.92155388480387, 35.30425791604094], [-96.92151891606301, 35.30785623168623], [-96.92370549162189, 35.30786448857823], [-96.92373091449399, 35.30606081825443], [-96.92375633336614, 35.30425714693059], [-96.92155388480387, 35.30425791604094]]]]}, "properties": {"LANDAREACODE": "821", "TRACTID": "821 ST 1041", "TRACTREFNUM": "28702995", "Label_Name": "Citizen Potawatomi Nation- Absentee Shawnee", "LAR_Name": "Citizen Potawatomi Nation- Absentee Shawnee", "TAAMS_Name": "Citizen Potawatomi", "REGION": "Southern Plains", "AGENCY": "Shawnee", "OWNERSHIP": "T", "TRBE_INTEREST_PERCENT": 100, "Mineral_Resources": "Surface", "EST_ACRES": 39.6}}, {"type": "Feature", "geometry": {"type": "Polygon", "coordinates": [[[-96.83772379559542, 35.387432630113636], [-96.83335165047804, 35.38744004433443], [-96.83334721974833, 35.391064913982596], [-96.83773900487105, 35.391061137761405], [-96.83772379559542, 35.387432630113636]]]}, "properties": {"LANDAREACODE": "820", "TRACTID": "820 ST 260", "TRACTREFNUM": "17100129", "Label_Name": "Absentee Shawnee", "LAR_Name": "Absentee Shawnee", "TAAMS_Name": "Absentee Shawnee", "REGION": "Southern Plains", "AGENCY": "Shawnee", "OWNERSHIP": "T", "TRBE_INTEREST_PERCENT": 100, "Mineral_Resources": "Surface", "EST_ACRES": 39.5}}, {"type": "Feature", "geometry": {"type": "Polygon", "coordinates": [[[-97.21092573890043, 35.22852074503321], [-97.21101092391427, 35.22841592401028], [-97.21109399692757, 35.2283099789872], [-97.21117493494017, 35.228202935964035], [-97.21125371695217, 35.22809482494082], [-97.21133032096351, 35.22798567491753], [-97.21140472697424, 35.22787551389414], [-97.21147691498435, 35.22776437387071], [-97.2115468649938, 35.22765228284721], [-97.21161456000266, 35.22753927082368], [-97.21167997901078, 35.22742536880009], [-97.21174310701832, 35.2273106067765], [-97.21180392602518, 35.22719501575279], [-97.21186242003144, 35.22707862772913], [-97.211918574037, 35.22696147170543], [-97.21197237104188, 35.2268435816817], [-97.21202379804618, 35.226724986657956], [-97.20770560894705, 35.22671037287143], [-97.2033057828271, 35.22669532508892], [-97.2033087429618, 35.228497320410206], [-97.20400132913808, 35.22849946637591], [-97.21092573890043, 35.22852074503321]]]}, "properties": {"LANDAREACODE": "820", "TRACTID": "820 T 500 -K", "TRACTREFNUM": "780213", "Label_Name": "Absentee Shawnee", "LAR_Name": "Absentee Shawnee", "TAAMS_Name": "Absentee Shawnee", "REGION": "Southern Plains", "AGENCY": "Shawnee", "OWNERSHIP": "T", "TRBE_INTEREST_PERCENT": 100, "Mineral_Resources": "Both", "EST_ACRES": 36.9}}, {"type": "Feature", "geometry": {"type": "Polygon", "coordinates": [[[-96.92592129695942, 35.30480100191954], [-96.92586817403998, 35.306064425148094], [-96.92579393215249, 35.30783002146758], [-96.92994610221619, 35.307878666268415], [-96.93007800901583, 35.30473647169993], [-96.92926182780676, 35.30472692373909], [-96.92926185180657, 35.3047248087387], [-96.92924703280278, 35.30472459773941], [-96.92926675077285, 35.304254910654414], [-96.9268511851562, 35.304255959775524], [-96.92682773319179, 35.30481388087648], [-96.9267696261769, 35.304813054879226], [-96.92592129695942, 35.30480100191954]]]}, "properties": {"LANDAREACODE": "821", "TRACTID": "821 ST 1036", "TRACTREFNUM": "7707500", "Label_Name": "Citizen Potawatomi Nation- Absentee Shawnee", "LAR_Name": "Citizen Potawatomi Nation- Absentee Shawnee", "TAAMS_Name": "Citizen Potawatomi", "REGION": "Southern Plains", "AGENCY": "Shawnee", "OWNERSHIP": "T", "TRBE_INTEREST_PERCENT": 100, "Mineral_Resources": "Surface", "EST_ACRES": 35.0}}, {"type": "Feature", "geometry": {"type": "Polygon", "coordinates": [[[-96.94178266604774, 35.30532770421979], [-96.94181030397809, 35.30429775703424], [-96.93898664425534, 35.304271393170886], [-96.93885602449221, 35.30789829882584], [-96.94305339856665, 35.307938660622945], [-96.94312308739083, 35.305340198154894], [-96.94178266604774, 35.30532770421979]]]}, "properties": {"LANDAREACODE": "821", "TRACTID": "821 ST 1026", "TRACTREFNUM": "4611172", "Label_Name": "Citizen Potawatomi Nation- Absentee Shawnee", "LAR_Name": "Citizen Potawatomi Nation- Absentee Shawnee", "TAAMS_Name": "Citizen Potawatomi", "REGION": "Southern Plains", "AGENCY": "Shawnee", "OWNERSHIP": "T", "TRBE_INTEREST_PERCENT": 100, "Mineral_Resources": "Surface", "EST_ACRES": 34.3}}, {"type": "Feature", "geometry": {"type": "Polygon", "coordinates": [[[-96.92186449106549, 35.293272697060566], [-96.92183255406613, 35.29339106008336], [-96.92160183207088, 35.29424613124783], [-96.9209793000836, 35.296553173691635], [-96.92159169223997, 35.296553630661094], [-96.92595535635428, 35.29655680744342], [-96.92596231925529, 35.2952024612008], [-96.92599308926312, 35.29520248219928], [-96.92601928326985, 35.295202501197934], [-96.92602548818155, 35.29399496298167], [-96.92599929517486, 35.29399493798296], [-96.92403512867328, 35.29399306908085], [-96.92403822662942, 35.29339319497341], [-96.92403825662902, 35.29338748697238], [-96.92386488357637, 35.293274634960895], [-96.92376559455103, 35.29327453896583], [-96.92186449106549, 35.293272697060566]]]}, "properties": {"LANDAREACODE": "820", "TRACTID": "820 T 1000", "TRACTREFNUM": "773097", "Label_Name": "Absentee Shawnee", "LAR_Name": "Absentee Shawnee", "TAAMS_Name": "Absentee Shawnee", "REGION": "Southern Plains", "AGENCY": "Shawnee", "OWNERSHIP": "T", "TRBE_INTEREST_PERCENT": 100, "Mineral_Resources": "Both", "EST_ACRES": 33.8}}, {"type": "Feature", "geometry": {"type": "Polygon", "coordinates": [[[-96.94794426020022, 35.28625067550027], [-96.94793926735713, 35.288376836880744], [-96.94793901136521, 35.28848586390026], [-96.94950272776416, 35.28848447882178], [-96.94950030184089, 35.289523786007805], [-96.94949973585882, 35.28976659905123], [-96.95232286357948, 35.28976899591045], [-96.95233385132028, 35.286247819280185], [-96.94794426020022, 35.28625067550027]]]}, "properties": {"LANDAREACODE": "820", "TRACTID": "820 ST 1002", "TRACTREFNUM": "773110", "Label_Name": "Absentee Shawnee", "LAR_Name": "Absentee Shawnee", "TAAMS_Name": "Absentee Shawnee", "REGION": "Southern Plains", "AGENCY": "Shawnee", "OWNERSHIP": "T", "TRBE_INTEREST_PERCENT": 100, "Mineral_Resources": "Surface", "EST_ACRES": 33.5}}]}