{"type": "FeatureCollection", "features": [{"type": "Feature", "id": 167854, "geometry": {"type": "MultiPolygon", "coordinates": [[[[-92.16128237438168, 31.183022055719523], [-92.16116152735677, 31.18317026475468], [-92.16060650024235, 31.183850948916366], [-92.15898932994455, 31.186559660537984], [-92.1594881780895, 31.186802625570376], [-92.16065710242913, 31.187371939646095], [-92.16091094850285, 31.187495536662567], [-92.1609258205063, 31.18748485565981], [-92.16150530864611, 31.187186663576767], [-92.16202254377217, 31.186945888507925], [-92.16222206481895, 31.186816890473875], [-92.16246280187619, 31.186675621435725], [-92.16282630096408, 31.186492954384555], [-92.16314031003932, 31.186320472337304], [-92.16364828616595, 31.186142438281795], [-92.16425159431239, 31.185850065199116], [-92.16478895744122, 31.185558223118957], [-92.16527788955995, 31.18532246405217], [-92.16580322668759, 31.185070804980754], [-92.1662066137855, 31.184875274925464], [-92.16658819787847, 31.184697252874596], [-92.16696637196992, 31.18450747182138], [-92.16762067712807, 31.18417667072889], [-92.16813365925023, 31.18388130464883], [-92.16842872832062, 31.183713346603216], [-92.16861581036424, 31.183586197569976], [-92.16962289960381, 31.183000047411554], [-92.16976178862878, 31.182755603355712], [-92.1695728995544, 31.182266713261033], [-92.16975623259289, 31.18205560221049], [-92.17016178869781, 31.181991714182477], [-92.17037012076167, 31.182161158210103], [-92.17042012077594, 31.18218060321227], [-92.1704284547782, 31.182180602211986], [-92.17042845477587, 31.182133380202202], [-92.17020067670613, 31.18195004817237], [-92.16995067563842, 31.181927826176874], [-92.1698951216132, 31.18171671413498], [-92.17000345563359, 31.18154449209526], [-92.17020623368494, 31.1814889370764], [-92.17059234477979, 31.181325047028285], [-92.17048123274333, 31.181186157003452], [-92.17063956578046, 31.18108337997634], [-92.17062012177325, 31.181041713968366], [-92.17068956678189, 31.180841712924288], [-92.17060623375247, 31.18069449089678], [-92.17054424373055, 31.180584978876244], [-92.170522899723, 31.1805472698692], [-92.17038401067967, 31.18041949184774], [-92.17015623261682, 31.180375046846766], [-92.16937845339226, 31.180025045802292], [-92.16877405522416, 31.17988307279481], [-92.1674742838759, 31.179846012834354], [-92.16710677377745, 31.179835534845576], [-92.16477468615255, 31.179769040916547], [-92.16477372014793, 31.17968096889825], [-92.16358733783218, 31.179689890943248], [-92.16349161280672, 31.17969098294696], [-92.16126637121437, 31.17970754003134], [-92.16126644805576, 31.176482982361236], [-92.1624737863775, 31.176480647316875], [-92.16248982832143, 31.175253955061308], [-92.16252102021244, 31.172868499564448], [-92.15708623676669, 31.172927496774243], [-92.15715599660832, 31.16932804502354], [-92.15401723077278, 31.169352004142606], [-92.15330551058335, 31.169357427169544], [-92.1487169893618, 31.169392285343555], [-92.1487858511724, 31.18550317568963], [-92.14883495918463, 31.185484452683976], [-92.14925845833415, 31.18622927182334], [-92.15205620600473, 31.184698502403446], [-92.15280683528997, 31.186428316735604], [-92.15770490059458, 31.186406000552825], [-92.1577057265717, 31.18593634545519], [-92.15830562774595, 31.186227700493898], [-92.15890553192021, 31.1865190525326], [-92.16051972721708, 31.183807823910556], [-92.1612172853604, 31.18294137670512], [-92.1612849153743, 31.18285737268519], [-92.16128237438168, 31.183022055719523]]], [[[-92.164309007887, 31.176894490336142], [-92.16464511999219, 31.177211157389724], [-92.1651006761288, 31.177519491437234], [-92.16546910822818, 31.17754424142896], [-92.16547933929141, 31.178773469684018], [-92.16712382572896, 31.178758257621062], [-92.16757278684845, 31.1787541046039], [-92.16732334776052, 31.178318428522388], [-92.16731719075706, 31.17828133451493], [-92.16731685274264, 31.177990203454456], [-92.1672569537208, 31.177870295431724], [-92.16717689068672, 31.177611334380828], [-92.16705917263744, 31.177247392309447], [-92.16693448959009, 31.1769608982545], [-92.16688190356602, 31.176756129213796], [-92.16681022753183, 31.176449496152713], [-92.16672579349202, 31.176097373082627], [-92.16666675445839, 31.175733231009072], [-92.16654405040379, 31.175289156921288], [-92.16641747234539, 31.174787232821537], [-92.16632881930869, 31.174521070769444], [-92.16629786228032, 31.174111410685416], [-92.1662595352628, 31.17396339565608], [-92.1663123112665, 31.17375233061034], [-92.1664044412722, 31.173369406527396], [-92.16644927328151, 31.173315251514534], [-92.16648515526221, 31.172728881391354], [-92.16642648623834, 31.17256135835865], [-92.16640536622995, 31.172505026347718], [-92.1664112432149, 31.17216728127729], [-92.16658434424515, 31.171843606203726], [-92.16661602323785, 31.171523116136], [-92.16674559725796, 31.171230368070447], [-92.16692319128155, 31.17074666196347], [-92.16694214327988, 31.170610701934496], [-92.16706626229292, 31.17020254684516], [-92.16717765531114, 31.169969120792626], [-92.16733080533677, 31.16965985772277], [-92.16740111234583, 31.16946319667932], [-92.1675739693786, 31.169192637616806], [-92.16717082327128, 31.16919558963212], [-92.16727262028864, 31.168996305586976], [-92.16624710900851, 31.168858536595625], [-92.16605416797408, 31.169203763674364], [-92.16597332695751, 31.169305164698372], [-92.165818384921, 31.169402273724213], [-92.16564119887838, 31.16949658975026], [-92.16551260684926, 31.169601962776817], [-92.16543852483439, 31.16970013679993], [-92.16537922182256, 31.16978114981892], [-92.16531570781181, 31.169907499847447], [-92.16519641578365, 31.169980990867064], [-92.1650656607521, 31.17004911888601], [-92.16495160972346, 31.170084312897494], [-92.16478529668214, 31.170145773916268], [-92.16451774061602, 31.17025084694781], [-92.16415053953278, 31.170549495023256], [-92.16425340955968, 31.170537703017047], [-92.16434770558627, 31.170567958019923], [-92.164427196609, 31.17059908802354], [-92.16449292563104, 31.170691296040257], [-92.16446586863073, 31.170832259070576], [-92.16448235264018, 31.170934843091267], [-92.16439964862288, 31.171030611114197], [-92.1649024817567, 31.171026661095084], [-92.16550100391602, 31.171021961072373], [-92.1655112140079, 31.17283629344904], [-92.16511825390337, 31.172840375464176], [-92.16261299923696, 31.172867504560912], [-92.162573287404, 31.176480955313295], [-92.16419397583587, 31.176478185253817], [-92.164309007887, 31.176894490336142]]]]}, "properties": {"OBJECTID": 167854, "LANDAREACODE": "044", "TRACTREFNUM": "76701851", "TRACTID": "044 T 4250", "Mineral_Resources": "Both", "TAAMS_Name": "Tunica Biloxi", "LAR_Name": "Tunica-Biloxi", "Label_Name": "Tunica-Biloxi", "REGION": "Eastern", "AGENCY": "Eastern Regional Office", "Parcel_CNM_Present": "False", "OWNERSHIP": null, "TRBE_INTEREST_PERCENT": 100, "EST_ACRES": 711.2}}, {"type": "Feature", "id": 64684, "geometry": {"type": "Polygon", "coordinates": [[[-92.05213583374447, 31.111040836699438], [-92.05138777257262, 31.111609641844993], [-92.05017408915728, 31.109735560498383], [-92.0500983261414, 31.109824107519533], [-92.05129856455216, 31.111677425862336], [-92.05115808351988, 31.11178423888968], [-92.05079351742829, 31.111901708927277], [-92.05025970328667, 31.1119184709501], [-92.04981205917495, 31.112075812999084], [-92.04940185908609, 31.112498291101897], [-92.04900067698965, 31.11271492516157], [-92.04878580893218, 31.11271212816871], [-92.04847342484618, 31.112658959168957], [-92.04643673232131, 31.113039604321838], [-92.04576238115739, 31.11336786341461], [-92.04445921284957, 31.114185497632068], [-92.04392277973282, 31.114726912764304], [-92.0433307355875, 31.114986147839712], [-92.04256282439239, 31.11518773590944], [-92.04208372626682, 31.1152339449364], [-92.04238229936396, 31.115591170000055], [-92.04262945045245, 31.11605276908729], [-92.04280356953018, 31.11669283921435], [-92.04283954357437, 31.117401966360784], [-92.042861194601, 31.117828726448952], [-92.04287551961866, 31.118111094507267], [-92.0425903445734, 31.118743395649318], [-92.04313957281636, 31.12071630804048], [-92.04534318140965, 31.120823202983047], [-92.04596651659152, 31.121141163026778], [-92.04593388658533, 31.121193021038753], [-92.04619625966056, 31.121299711051478], [-92.04639964571642, 31.121332370050936], [-92.04643029471718, 31.121180415018195], [-92.04669736056486, 31.116602217054737], [-92.04953798135477, 31.117256019088252], [-92.05119943881579, 31.117617444103466], [-92.05155393291429, 31.11769833310749], [-92.05557465502794, 31.118533062135963], [-92.05883704993529, 31.119288183175353], [-92.05913501597036, 31.118378478975043], [-92.05854732080559, 31.118214804962243], [-92.05879079384269, 31.11764459183464], [-92.05814151966229, 31.117497916827574], [-92.05798024162195, 31.117553110844867], [-92.05760007851691, 31.117479251843232], [-92.05759618751425, 31.11744621783649], [-92.0577892365472, 31.11706575075024], [-92.05785965555899, 31.11692293471795], [-92.05779175953795, 31.116863068707968], [-92.05769888650747, 31.1167469166871], [-92.05770774050372, 31.116620862660554], [-92.05795932656493, 31.116500119626274], [-92.05796664556621, 31.116487241623336], [-92.0581032075934, 31.116297499578884], [-92.05823117062916, 31.116330223581077], [-92.05824215962282, 31.116140852541196], [-92.05826575662552, 31.11606758852509], [-92.05842571566951, 31.116093686524724], [-92.05848846267864, 31.115937455489913], [-92.05863938464523, 31.114429295170332], [-92.05585920696141, 31.11561727351827], [-92.05141843573246, 31.114715280490945], [-92.05268552996517, 31.112556798995406], [-92.0530914230397, 31.11186533883668], [-92.05213583374447, 31.111040836699438]]]}, "properties": {"OBJECTID": 64684, "LANDAREACODE": "044", "TRACTREFNUM": "350900104", "TRACTID": "044 T 4005", "Mineral_Resources": "Both", "TAAMS_Name": "Tunica Biloxi", "LAR_Name": "Tunica-Biloxi", "Label_Name": "Tunica-Biloxi", "REGION": "Eastern", "AGENCY": "Eastern Regional Office", "Parcel_CNM_Present": "False", "OWNERSHIP": null, "TRBE_INTEREST_PERCENT": 100, "EST_ACRES": 196.1}}, {"type": "Feature", "id": 38413, "geometry": {"type": "Polygon", "coordinates": [[[-92.0530914230397, 31.11186533883668], [-92.05268552996517, 31.112556798995406], [-92.05141843573246, 31.114715280490945], [-92.05585920696141, 31.11561727351827], [-92.05863938464523, 31.114429295170332], [-92.06227380153908, 31.112876160715384], [-92.063402866791, 31.11186625346415], [-92.0636593998292, 31.111247692326], [-92.06397142487576, 31.110495315158023], [-92.06447811395131, 31.109273519885186], [-92.06357291670908, 31.109258971914837], [-92.06357296770908, 31.109259130914907], [-92.06050817988898, 31.10920967201534], [-92.05943137961118, 31.109404377094823], [-92.05714468002122, 31.109817818263593], [-92.05395480919827, 31.110394481499018], [-92.05329679407743, 31.111515475756374], [-92.0530914230397, 31.11186533883668]]]}, "properties": {"OBJECTID": 38413, "LANDAREACODE": "044", "TRACTREFNUM": "4507206", "TRACTID": "044 T 4000", "Mineral_Resources": "Both", "TAAMS_Name": "Tunica Biloxi", "LAR_Name": "Tunica-Biloxi", "Label_Name": "Tunica-Biloxi", "REGION": "Eastern", "AGENCY": "Eastern Regional Office", "Parcel_CNM_Present": "False", "OWNERSHIP": "T", "TRBE_INTEREST_PERCENT": 100, "EST_ACRES": 134.0}}, {"type": "Feature", "id": 4377, "geometry": {"type": "Polygon", "coordinates": [[[-92.04644434760128, 31.09824086723775], [-92.0474158418862, 31.09876785031249], [-92.04988891661155, 31.10010930550273], [-92.0501983587023, 31.100277147526537], [-92.0536108247031, 31.102127991788983], [-92.05395253380333, 31.102313318815256], [-92.05519951908896, 31.101349071569327], [-92.0553447221222, 31.10123525554036], [-92.05584282723626, 31.10084953144199], [-92.05542175111178, 31.100601249405475], [-92.05313843243692, 31.099254871207318], [-92.0535416875297, 31.09895158112957], [-92.05307423838987, 31.098641251081776], [-92.05592509304638, 31.09650620853388], [-92.05666021221569, 31.095955641392607], [-92.05595658401097, 31.09560728834542], [-92.05549202791829, 31.09624860349582], [-92.05509524680123, 31.0960189104623], [-92.05457903066247, 31.09599792947658], [-92.05411654252777, 31.095765906444907], [-92.05499982773253, 31.09513195728088], [-92.05461670162049, 31.09493100525284], [-92.05387496744807, 31.09545344338851], [-92.05347628433043, 31.09522261035481], [-92.05421862350315, 31.094702533219646], [-92.0541827214925, 31.094680543216285], [-92.05370805038234, 31.095018814303973], [-92.05331355828967, 31.09527711537202], [-92.05293654617614, 31.095011569330318], [-92.05210273592503, 31.094424275237994], [-92.04907165421596, 31.096468815773527], [-92.04823297501972, 31.097034496921715], [-92.04778853991549, 31.097329233999176], [-92.04779266891674, 31.0973314739995], [-92.04644434760128, 31.09824086723775]]]}, "properties": {"OBJECTID": 4377, "LANDAREACODE": "044", "TRACTREFNUM": "307500056", "TRACTID": "044 T 4011", "Mineral_Resources": "Both", "TAAMS_Name": "Tunica Biloxi", "LAR_Name": "Tunica-Biloxi", "Label_Name": "Tunica-Biloxi", "REGION": "Eastern", "AGENCY": "Eastern Regional Office", "Parcel_CNM_Present": "False", "OWNERSHIP": null, "TRBE_INTEREST_PERCENT": 100, "EST_ACRES": 96.5}}, {"type": "Feature", "id": 154954, "geometry": {"type": "Polygon", "coordinates": [[[-92.04644434760128, 31.09824086723775], [-92.04488992023762, 31.09928923151235], [-92.04348763491946, 31.100438736802566], [-92.04687756695327, 31.10308815023226], [-92.04765592524099, 31.104728477546008], [-92.04859734954371, 31.105783761731907], [-92.04877440359117, 31.105788232726457], [-92.04911623067821, 31.105702817696315], [-92.04929669472277, 31.10562924467443], [-92.05269995851634, 31.10328232106245], [-92.05345818069007, 31.102696119912874], [-92.05395253380333, 31.102313318815256], [-92.0536108247031, 31.102127991788983], [-92.0501983587023, 31.100277147526537], [-92.04988891661155, 31.10010930550273], [-92.0474158418862, 31.09876785031249], [-92.04644434760128, 31.09824086723775]]]}, "properties": {"OBJECTID": 154954, "LANDAREACODE": "044", "TRACTREFNUM": "305700029", "TRACTID": "044 T 4009", "Mineral_Resources": "Both", "TAAMS_Name": "Tunica Biloxi", "LAR_Name": "Tunica-Biloxi", "Label_Name": "Tunica-Biloxi", "REGION": "Eastern", "AGENCY": "Eastern Regional Office", "Parcel_CNM_Present": "False", "OWNERSHIP": null, "TRBE_INTEREST_PERCENT": 100, "EST_ACRES": 95.8}}, {"type": "Feature", "id": 154857, "geometry": {"type": "Polygon", "coordinates": [[[-92.05213583374447, 31.111040836699438], [-92.0530914230397, 31.11186533883668], [-92.05329679407743, 31.111515475756374], [-92.05395480919827, 31.110394481499018], [-92.05714468002122, 31.109817818263593], [-92.0575594980799, 31.108751850026536], [-92.05723485599285, 31.108743322036457], [-92.0569758749234, 31.108736518044434], [-92.05692774891054, 31.10873525404587], [-92.05652078880141, 31.108724561058374], [-92.05610934169111, 31.10871374807097], [-92.05590223456502, 31.10726263077612], [-92.055782343492, 31.10642257960542], [-92.05569513443896, 31.105811510481253], [-92.05473111519537, 31.10609165257445], [-92.0546139351658, 31.106125703585775], [-92.05312250878899, 31.106559087729977], [-92.05258396065292, 31.106715802782094], [-92.0516340924669, 31.10809696410419], [-92.0525701877995, 31.109794005423964], [-92.05253840583507, 31.11069644961316], [-92.05213583374447, 31.111040836699438]]]}, "properties": {"OBJECTID": 154857, "LANDAREACODE": "044", "TRACTREFNUM": "303500280", "TRACTID": "044 T 4002", "Mineral_Resources": "Both", "TAAMS_Name": "Tunica Biloxi", "LAR_Name": "Tunica-Biloxi", "Label_Name": "Tunica-Biloxi", "REGION": "Eastern", "AGENCY": "Eastern Regional Office", "Parcel_CNM_Present": "False", "OWNERSHIP": null, "TRBE_INTEREST_PERCENT": 100, "EST_ACRES": 47.4}}, {"type": "Feature", "id": 163541, "geometry": {"type": "MultiPolygon", "coordinates": [[[[-92.05943137961118, 31.109404377094823], [-92.06050817988898, 31.10920967201534], [-92.06357296770908, 31.109259130914907], [-92.06357291670908, 31.109258971914837], [-92.06305014948913, 31.10761057459032], [-92.0629326954397, 31.1072402125174], [-92.06264549731891, 31.106334580339148], [-92.06141084700364, 31.106624813444206], [-92.05948433455121, 31.10788669777671], [-92.05943137961118, 31.109404377094823]], [[-92.0615388260863, 31.107618344646585], [-92.0611989820067, 31.107845103706097], [-92.06107576596713, 31.107708390682042], [-92.0609525519276, 31.107571678658047], [-92.0612923970072, 31.107344919598475], [-92.0615388260863, 31.107618344646585]], [[-92.06297018248509, 31.107965629667188], [-92.06272625542277, 31.10802193468773], [-92.06266158740625, 31.10803686169317], [-92.06235299232742, 31.108108093719196], [-92.06218472725662, 31.10757767161476], [-92.06280191741436, 31.107435206562773], [-92.06297018248509, 31.107965629667188]]], [[[-92.05795488210724, 31.107151042678723], [-92.0575594980799, 31.108751850026536], [-92.05914422548807, 31.108451318906653], [-92.0592626223696, 31.105376901261838], [-92.0606492077464, 31.10551776024107], [-92.06145763095283, 31.105327901172327], [-92.06190450506692, 31.105222949134287], [-92.06226605115926, 31.105138036103515], [-92.06212464109974, 31.104692103015733], [-92.06211178309434, 31.104651556007724], [-92.06190682100812, 31.10400521088045], [-92.05884796123541, 31.104895247176454], [-92.0576812809407, 31.10523431528922], [-92.05795488210724, 31.107151042678723]]]]}, "properties": {"OBJECTID": 163541, "LANDAREACODE": "044", "TRACTREFNUM": "313600461", "TRACTID": "044 T 4014", "Mineral_Resources": "Both", "TAAMS_Name": "Tunica Biloxi", "LAR_Name": "Tunica-Biloxi", "Label_Name": "Tunica-Biloxi", "REGION": "Eastern", "AGENCY": "Eastern Regional Office", "Parcel_CNM_Present": "False", "OWNERSHIP": "T", "TRBE_INTEREST_PERCENT": 100, "EST_ACRES": 43.5}}, {"type": "Feature", "id": 204330, "geometry": {"type": "Polygon", "coordinates": [[[-92.20598648876043, 31.110995858124234], [-92.20660786793304, 31.111140154131775], [-92.20711461305346, 31.11084203705142], [-92.20677734094183, 31.110397028971054], [-92.20788867620624, 31.109750037796257], [-92.20821238331474, 31.110205209879187], [-92.2095514626429, 31.10962205670944], [-92.20952190659598, 31.108823932544563], [-92.21017565576084, 31.108634630481497], [-92.21018320869956, 31.107339509211872], [-92.20997108864293, 31.10733717321906], [-92.20995174159351, 31.10643247203162], [-92.20762485797316, 31.10642154511358], [-92.20689963277982, 31.106418131139144], [-92.20600623854162, 31.106413918170606], [-92.20598648876043, 31.110995858124234]]]}, "properties": {"OBJECTID": 204330, "LANDAREACODE": "044", "TRACTREFNUM": "313600452", "TRACTID": "044 T 4012", "Mineral_Resources": "Both", "TAAMS_Name": "Tunica Biloxi", "LAR_Name": "Tunica-Biloxi", "Label_Name": "Tunica-Biloxi", "REGION": "Eastern", "AGENCY": "Eastern Regional Office", "Parcel_CNM_Present": "False", "OWNERSHIP": "T", "TRBE_INTEREST_PERCENT": 100, "EST_ACRES": 38.8}}, {"type": "Feature", "id": 78290, "geometry": {"type": "Polygon", "coordinates": [[[-92.09927287577736, 31.07943891741281], [-92.10038321209998, 31.07998295948611], [-92.10033406609188, 31.08008541750923], [-92.10527864552847, 31.082508265835543], [-92.10603375564979, 31.08086546546605], [-92.10433943115834, 31.08005216435775], [-92.10155426435053, 31.0787151651797], [-92.09998207889453, 31.077960404079175], [-92.09927287577736, 31.07943891741281]]]}, "properties": {"OBJECTID": 78290, "LANDAREACODE": "044", "TRACTREFNUM": "3001114264", "TRACTID": "044 T 4017", "Mineral_Resources": "Both", "TAAMS_Name": "Tunica Biloxi", "LAR_Name": "Tunica-Biloxi", "Label_Name": "Tunica-Biloxi", "REGION": "Eastern", "AGENCY": "Eastern Regional Office", "Parcel_CNM_Present": "False", "OWNERSHIP": null, "TRBE_INTEREST_PERCENT": 100, "EST_ACRES": 30.9}}]}